[{"OBJECT_NAME":"STARLINK-34279","OBJECT_ID":"2025-127V","EPOCH":"2026-03-09T09:01:01.689600","MEAN_MOTION":15.27578353,"ECCENTRICITY":0.00010928,"INCLINATION":43.0024,"RA_OF_ASC_NODE":182.0264,"ARG_OF_PERICENTER":240.6814,"MEAN_ANOMALY":119.3928,"EPHEMERIS_TYPE":0,"CLASSIFICATION_TYPE":"U","NORAD_CAT_ID":64389,"ELEMENT_SET_NO":999,"REV_AT_EPOCH":4241,"BSTAR":0.0009842521,"MEAN_MOTION_DOT":0.0002692,"MEAN_MOTION_DDOT":0},{"OBJECT_NAME":"H-2A R\/B","OBJECT_ID":"2006-002B","EPOCH":"2026-03-09T22:32:18.942432","MEAN_MOTION":15.16426804,"ECCENTRICITY":0.00518947,"INCLINATION":98.2413,"RA_OF_ASC_NODE":215.9838,"ARG_OF_PERICENTER":240.1322,"MEAN_ANOMALY":119.4746,"EPHEMERIS_TYPE":0,"CLASSIFICATION_TYPE":"U","NORAD_CAT_ID":28932,"ELEMENT_SET_NO":999,"REV_AT_EPOCH":9447,"BSTAR":0.00057792596,"MEAN_MOTION_DOT":0.00011556,"MEAN_MOTION_DDOT":0}]
